UNKNOWN                 
1 82627U          26064.30168660  .00000645  00000+0  16594-2 0  9994
2 82627  82.4738 189.7512 0016443 241.0819 148.1940 13.16434498589692
UNKNOWN                 
1 82642U          26062.54981209  .00003400  00000+0  18738-2 0  9991
2 82642  98.9746 337.5622 0136834  11.2481 349.1694 14.07579066627508
UNKNOWN                 
1 82683U          26064.39955733  .00001934  00000+0  73654-3 0  9993
2 82683  98.1604 132.1227 0211036 153.6569 207.5527 14.20386520474007
UNKNOWN                 
1 82693U          26060.73941356  .00002664  00000+0  30752-2 0  9996
2 82693 100.5288  36.5327 0038683 187.1107 172.9491 13.69982439564577
UNKNOWN                 
1 82698U          26058.13541232  .00001124  00000+0  69448-3 0  9996
2 82698  61.6122 305.8235 0688186 318.1455  36.8822 13.29852878548530
UNKNOWN                 
1 82708U          26064.03704540  .00001147  00000+0  45044-2 0  9997
2 82708 102.1653 280.1665 0060082 116.9498 243.7748 12.90735647534132
UNKNOWN                 
1 82739U          26060.94404269  .00000501  00000+0  44305-3 0  9995
2 82739  99.0936 219.5999 0171805  81.8902  71.2095 13.82966322617056
UNKNOWN                 
1 82741U          26063.64485636  .00002307  00000+0  25001-2 0  9992
2 82741 102.8428 130.4694 0199006  84.8545 277.5265 13.66461059608262
UNKNOWN                 
1 82783U          26061.89169903 -.00000287  00000+0 -85822-3 0  9994
2 82783  90.3436  40.7229 0020071 260.1678  99.7184 13.09082179514849
UNKNOWN                 
1 82798U          26059.48190512  .00001920  00000+0  83774-3 0  9999
2 82798  82.9509 129.4832 0027126 292.8683  82.6977 14.23311743323437
UNKNOWN                 
1 82820U          26063.93627485  .00004731  00000+0  16334-2 0  9994
2 82820  99.7926 240.6524 0049429 141.5805 218.8913 14.35692439637429
UNKNOWN                 
1 82829U          26047.73549546  .00000186  00000+0  62868-2 0  9997
2 82829  65.1038 312.4892 0178136 322.2986  65.4853 11.29162853493534
