CCSDS_OMM_VERS = 2.0
CREATION_DATE  = 
ORIGINATOR     = 

OBJECT_NAME    = UNKNOWN
OBJECT_ID      = 
CENTER_NAME    = EARTH
REF_FRAME      = TEME
TIME_SYSTEM    = UTC
MEAN_ELEMENT_THEORY = SGP/SGP4

EPOCH          = 2026-03-05T07:14:25.722240
MEAN_MOTION    = 13.16434498
ECCENTRICITY   = .0016443
INCLINATION    = 82.4738
RA_OF_ASC_NODE = 189.7512
ARG_OF_PERICENTER = 241.0819
MEAN_ANOMALY   = 148.1940

EPHEMERIS_TYPE = 0
CLASSIFICATION_TYPE = U
NORAD_CAT_ID   = 82627
ELEMENT_SET_NO = 999
REV_AT_EPOCH   = 58969
BSTAR          = .16594E-2
MEAN_MOTION_DOT = .645E-5
MEAN_MOTION_DDOT = 0

CCSDS_OMM_VERS = 2.0
CREATION_DATE  = 
ORIGINATOR     = 

OBJECT_NAME    = UNKNOWN
OBJECT_ID      = 
CENTER_NAME    = EARTH
REF_FRAME      = TEME
TIME_SYSTEM    = UTC
MEAN_ELEMENT_THEORY = SGP/SGP4

EPOCH          = 2026-03-03T13:11:43.764576
MEAN_MOTION    = 14.07579066
ECCENTRICITY   = .0136834
INCLINATION    = 98.9746
RA_OF_ASC_NODE = 337.5622
ARG_OF_PERICENTER = 11.2481
MEAN_ANOMALY   = 349.1694

EPHEMERIS_TYPE = 0
CLASSIFICATION_TYPE = U
NORAD_CAT_ID   = 82642
ELEMENT_SET_NO = 999
REV_AT_EPOCH   = 62750
BSTAR          = .18738E-2
MEAN_MOTION_DOT = .34E-4
MEAN_MOTION_DDOT = 0

CCSDS_OMM_VERS = 2.0
CREATION_DATE  = 
ORIGINATOR     = 

OBJECT_NAME    = UNKNOWN
OBJECT_ID      = 
CENTER_NAME    = EARTH
REF_FRAME      = TEME
TIME_SYSTEM    = UTC
MEAN_ELEMENT_THEORY = SGP/SGP4

EPOCH          = 2026-03-05T09:35:21.753312
MEAN_MOTION    = 14.20386520
ECCENTRICITY   = .0211036
INCLINATION    = 98.1604
RA_OF_ASC_NODE = 132.1227
ARG_OF_PERICENTER = 153.6569
MEAN_ANOMALY   = 207.5527

EPHEMERIS_TYPE = 0
CLASSIFICATION_TYPE = U
NORAD_CAT_ID   = 82683
ELEMENT_SET_NO = 999
REV_AT_EPOCH   = 47400
BSTAR          = .73654E-3
MEAN_MOTION_DOT = .1934E-4
MEAN_MOTION_DDOT = 0

CCSDS_OMM_VERS = 2.0
CREATION_DATE  = 
ORIGINATOR     = 

OBJECT_NAME    = UNKNOWN
OBJECT_ID      = 
CENTER_NAME    = EARTH
REF_FRAME      = TEME
TIME_SYSTEM    = UTC
MEAN_ELEMENT_THEORY = SGP/SGP4

EPOCH          = 2026-03-01T17:44:45.331584
MEAN_MOTION    = 13.69982439
ECCENTRICITY   = .0038683
INCLINATION    = 100.5288
RA_OF_ASC_NODE = 36.5327
ARG_OF_PERICENTER = 187.1107
MEAN_ANOMALY   = 172.9491

EPHEMERIS_TYPE = 0
CLASSIFICATION_TYPE = U
NORAD_CAT_ID   = 82693
ELEMENT_SET_NO = 999
REV_AT_EPOCH   = 56457
BSTAR          = .30752E-2
MEAN_MOTION_DOT = .2664E-4
MEAN_MOTION_DDOT = 0

CCSDS_OMM_VERS = 2.0
CREATION_DATE  = 
ORIGINATOR     = 

OBJECT_NAME    = UNKNOWN
OBJECT_ID      = 
CENTER_NAME    = EARTH
REF_FRAME      = TEME
TIME_SYSTEM    = UTC
MEAN_ELEMENT_THEORY = SGP/SGP4

EPOCH          = 2026-02-27T03:14:59.624448
MEAN_MOTION    = 13.29852878
ECCENTRICITY   = .0688186
INCLINATION    = 61.6122
RA_OF_ASC_NODE = 305.8235
ARG_OF_PERICENTER = 318.1455
MEAN_ANOMALY   = 36.8822

EPHEMERIS_TYPE = 0
CLASSIFICATION_TYPE = U
NORAD_CAT_ID   = 82698
ELEMENT_SET_NO = 999
REV_AT_EPOCH   = 54853
BSTAR          = .69448E-3
MEAN_MOTION_DOT = .1124E-4
MEAN_MOTION_DDOT = 0

CCSDS_OMM_VERS = 2.0
CREATION_DATE  = 
ORIGINATOR     = 

OBJECT_NAME    = UNKNOWN
OBJECT_ID      = 
CENTER_NAME    = EARTH
REF_FRAME      = TEME
TIME_SYSTEM    = UTC
MEAN_ELEMENT_THEORY = SGP/SGP4

EPOCH          = 2026-03-05T00:53:20.722560
MEAN_MOTION    = 12.90735647
ECCENTRICITY   = .0060082
INCLINATION    = 102.1653
RA_OF_ASC_NODE = 280.1665
ARG_OF_PERICENTER = 116.9498
MEAN_ANOMALY   = 243.7748

EPHEMERIS_TYPE = 0
CLASSIFICATION_TYPE = U
NORAD_CAT_ID   = 82708
ELEMENT_SET_NO = 999
REV_AT_EPOCH   = 53413
BSTAR          = .45044E-2
MEAN_MOTION_DOT = .1147E-4
MEAN_MOTION_DDOT = 0

CCSDS_OMM_VERS = 2.0
CREATION_DATE  = 
ORIGINATOR     = 

OBJECT_NAME    = UNKNOWN
OBJECT_ID      = 
CENTER_NAME    = EARTH
REF_FRAME      = TEME
TIME_SYSTEM    = UTC
MEAN_ELEMENT_THEORY = SGP/SGP4

EPOCH          = 2026-03-01T22:39:25.288416
MEAN_MOTION    = 13.82966322
ECCENTRICITY   = .0171805
INCLINATION    = 99.0936
RA_OF_ASC_NODE = 219.5999
ARG_OF_PERICENTER = 81.8902
MEAN_ANOMALY   = 71.2095

EPHEMERIS_TYPE = 0
CLASSIFICATION_TYPE = U
NORAD_CAT_ID   = 82739
ELEMENT_SET_NO = 999
REV_AT_EPOCH   = 61705
BSTAR          = .44305E-3
MEAN_MOTION_DOT = .501E-5
MEAN_MOTION_DDOT = 0

CCSDS_OMM_VERS = 2.0
CREATION_DATE  = 
ORIGINATOR     = 

OBJECT_NAME    = UNKNOWN
OBJECT_ID      = 
CENTER_NAME    = EARTH
REF_FRAME      = TEME
TIME_SYSTEM    = UTC
MEAN_ELEMENT_THEORY = SGP/SGP4

EPOCH          = 2026-03-04T15:28:35.589504
MEAN_MOTION    = 13.66461059
ECCENTRICITY   = .0199006
INCLINATION    = 102.8428
RA_OF_ASC_NODE = 130.4694
ARG_OF_PERICENTER = 84.8545
MEAN_ANOMALY   = 277.5265

EPHEMERIS_TYPE = 0
CLASSIFICATION_TYPE = U
NORAD_CAT_ID   = 82741
ELEMENT_SET_NO = 999
REV_AT_EPOCH   = 60826
BSTAR          = .25001E-2
MEAN_MOTION_DOT = .2307E-4
MEAN_MOTION_DDOT = 0

CCSDS_OMM_VERS = 2.0
CREATION_DATE  = 
ORIGINATOR     = 

OBJECT_NAME    = UNKNOWN
OBJECT_ID      = 
CENTER_NAME    = EARTH
REF_FRAME      = TEME
TIME_SYSTEM    = UTC
MEAN_ELEMENT_THEORY = SGP/SGP4

EPOCH          = 2026-03-02T21:24:02.796192
MEAN_MOTION    = 13.09082179
ECCENTRICITY   = .0020071
INCLINATION    = 90.3436
RA_OF_ASC_NODE = 40.7229
ARG_OF_PERICENTER = 260.1678
MEAN_ANOMALY   = 99.7184

EPHEMERIS_TYPE = 0
CLASSIFICATION_TYPE = U
NORAD_CAT_ID   = 82783
ELEMENT_SET_NO = 999
REV_AT_EPOCH   = 51484
BSTAR          = -.85822E-3
MEAN_MOTION_DOT = -.287E-5
MEAN_MOTION_DDOT = 0

CCSDS_OMM_VERS = 2.0
CREATION_DATE  = 
ORIGINATOR     = 

OBJECT_NAME    = UNKNOWN
OBJECT_ID      = 
CENTER_NAME    = EARTH
REF_FRAME      = TEME
TIME_SYSTEM    = UTC
MEAN_ELEMENT_THEORY = SGP/SGP4

EPOCH          = 2026-02-28T11:33:56.602368
MEAN_MOTION    = 14.23311743
ECCENTRICITY   = .0027126
INCLINATION    = 82.9509
RA_OF_ASC_NODE = 129.4832
ARG_OF_PERICENTER = 292.8683
MEAN_ANOMALY   = 82.6977

EPHEMERIS_TYPE = 0
CLASSIFICATION_TYPE = U
NORAD_CAT_ID   = 82798
ELEMENT_SET_NO = 999
REV_AT_EPOCH   = 32343
BSTAR          = .83774E-3
MEAN_MOTION_DOT = .192E-4
MEAN_MOTION_DDOT = 0

CCSDS_OMM_VERS = 2.0
CREATION_DATE  = 
ORIGINATOR     = 

OBJECT_NAME    = UNKNOWN
OBJECT_ID      = 
CENTER_NAME    = EARTH
REF_FRAME      = TEME
TIME_SYSTEM    = UTC
MEAN_ELEMENT_THEORY = SGP/SGP4

EPOCH          = 2026-03-04T22:28:14.147040
MEAN_MOTION    = 14.35692439
ECCENTRICITY   = .0049429
INCLINATION    = 99.7926
RA_OF_ASC_NODE = 240.6524
ARG_OF_PERICENTER = 141.5805
MEAN_ANOMALY   = 218.8913

EPHEMERIS_TYPE = 0
CLASSIFICATION_TYPE = U
NORAD_CAT_ID   = 82820
ELEMENT_SET_NO = 999
REV_AT_EPOCH   = 63742
BSTAR          = .16334E-2
MEAN_MOTION_DOT = .4731E-4
MEAN_MOTION_DDOT = 0

CCSDS_OMM_VERS = 2.0
CREATION_DATE  = 
ORIGINATOR     = 

OBJECT_NAME    = UNKNOWN
OBJECT_ID      = 
CENTER_NAME    = EARTH
REF_FRAME      = TEME
TIME_SYSTEM    = UTC
MEAN_ELEMENT_THEORY = SGP/SGP4

EPOCH          = 2026-02-16T17:39:06.807744
MEAN_MOTION    = 11.29162853
ECCENTRICITY   = .0178136
INCLINATION    = 65.1038
RA_OF_ASC_NODE = 312.4892
ARG_OF_PERICENTER = 322.2986
MEAN_ANOMALY   = 65.4853

EPHEMERIS_TYPE = 0
CLASSIFICATION_TYPE = U
NORAD_CAT_ID   = 82829
ELEMENT_SET_NO = 999
REV_AT_EPOCH   = 49353
BSTAR          = .62868E-2
MEAN_MOTION_DOT = .186E-5
MEAN_MOTION_DDOT = 0

